HST                     
1 20580U 90037B   26128.82445620  .00006178  00000+0  19696-3 0  9999
2 20580  28.4761 349.5058 0002174  66.2001 293.8822 15.30329702782539
